COMMENT,ORIGINATOR,NORAD_CAT_ID,OBJECT_NAME,OBJECT_TYPE,CLASSIFICATION_TYPE,INTLDES,EPOCH,EPOCH_MICROSECONDS,MEAN_MOTION,ECCENTRICITY,INCLINATION,RA_OF_ASC_NODE,ARG_OF_PERICENTER,MEAN_ANOMALY,EPHEMERIS_TYPE,ELEMENT_SET_NO,REV_AT_EPOCH,BSTAR,MEAN_MOTION_DOT,MEAN_MOTION_DDOT,FILE,TLE_LINE0,TLE_LINE1,TLE_LINE2,OBJECT_ID,OBJECT_NUMBER,SEMIMAJOR_AXIS,PERIOD,APOGEE,PERIGEE,DECAYED
"GENERATED VIA SPACETRACK.ORG API","18 SPCS","56232","FENGYUN 3G","PAYLOAD","U","23055A","2023-11-10 12:18:28","981152","15.52179819","0.0009205","49.9976","203.0399","198.5259","161.5374","0","999","3239","0.00066465","0.00040868","0","4082124","0 FENGYUN 3G","1 56232U 23055A   23314.51283543  .00040868  00000-0  66465-3 0  9993","2 56232  49.9976 203.0399 0009205 198.5259 161.5374 15.52179819 32397","2023-055A","56232","6788.500","92.773","416.614","404.116","0"
"GENERATED VIA SPACETRACK.ORG API","18 SPCS","56232","FENGYUN 3G","PAYLOAD","U","23055A","2023-11-10 20:01:59","354400","15.52204053","0.0009235","49.9977","201.3828","199.9137","160.1471","0","999","3244","0.00063196","0.0003886","0","4082607","0 FENGYUN 3G","1 56232U 23055A   23314.83471475  .00038860  00000-0  63196-3 0  9998","2 56232  49.9977 201.3828 0009235 199.9137 160.1471 15.52204053 32447","2023-055A","56232","6788.429","92.771","416.563","404.025","0"
"GENERATED VIA SPACETRACK.ORG API","18 SPCS","56232","FENGYUN 3G","PAYLOAD","U","23055A","2023-11-10 23:07:23","393280","15.52211238","0.000921","49.9978","200.7198","200.5406","159.5192","0","999","3246","0.00058301","0.00035809","0","4082691","0 FENGYUN 3G","1 56232U 23055A   23314.96346520  .00035809  00000-0  58301-3 0  9996","2 56232  49.9978 200.7198 0009210 200.5406 159.5192 15.52211238 32469","2023-055A","56232","6788.408","92.771","416.525","404.021","0"
"GENERATED VIA SPACETRACK.ORG API","18 SPCS","56232","FENGYUN 3G","PAYLOAD","U","23055A","2023-11-11 03:45:29","286144","15.52228077","0.0009206","49.9978","199.7251","201.4316","158.6266","0","999","3249","0.00061167","0.00037624","0","4083227","0 FENGYUN 3G","1 56232U 23055A   23315.15658896  .00037624  00000-0  61167-3 0  9991","2 56232  49.9978 199.7251 0009206 201.4316 158.6266 15.52228077 32495","2023-055A","56232","6788.359","92.770","416.474","403.975","0"
"GENERATED VIA SPACETRACK.ORG API","18 SPCS","56232","FENGYUN 3G","PAYLOAD","U","23055A","2023-11-11 09:56:16","907712","15.52246229","0.0009225","49.9978","198.3991","202.5448","157.5115","0","999","3253","0.00057856","0.00035576","0","4083744","0 FENGYUN 3G","1 56232U 23055A   23315.41408458  .00035576  00000-0  57856-3 0  9991","2 56232  49.9978 198.3991 0009225 202.5448 157.5115 15.52246229 32535","2023-055A","56232","6788.306","92.769","416.434","403.909","0"
"GENERATED VIA SPACETRACK.ORG API","18 SPCS","56232","FENGYUN 3G","PAYLOAD","U","23055A","2023-11-11 13:01:40","610496","15.52256715","0.0009225","49.9977","197.7361","203.1341","156.9212","0","999","3255","0.00059548","0.00036649","0","4083845","0 FENGYUN 3G","1 56232U 23055A   23315.54283114  .00036649  00000-0  59548-3 0  9997","2 56232  49.9977 197.7361 0009225 203.1341 156.9212 15.52256715 32551","2023-055A","56232","6788.276","92.768","416.403","403.879","0"
"GENERATED VIA SPACETRACK.ORG API","18 SPCS","56232","FENGYUN 3G","PAYLOAD","U","23055A","2023-11-11 19:12:27","888192","15.52272492","0.000923","49.9977","196.4102","204.1826","155.8709","0","999","3259","0.00054998","0.0003382","0","4084406","0 FENGYUN 3G","1 56232U 23055A   23315.80032278  .00033820  00000-0  54998-3 0  9991","2 56232  49.9977 196.4102 0009230 204.1826 155.8709 15.52272492 32598","2023-055A","56232","6788.230","92.767","416.360","403.829","0"
"GENERATED VIA SPACETRACK.ORG API","18 SPCS","56232","FENGYUN 3G","PAYLOAD","U","23055A","2023-11-11 22:17:51","417312","15.52280449","0.0009241","49.9978","195.7472","204.6961","155.3565","0","999","3261","0.00053364","0.00032807","0","4084458","0 FENGYUN 3G","1 56232U 23055A   23315.92906733  .00032807  00000-0  53364-3 0  9990","2 56232  49.9978 195.7472 0009241 204.6961 155.3565 15.52280449 32617","2023-055A","56232","6788.207","92.767","416.345","403.799","0"
"GENERATED VIA SPACETRACK.ORG API","18 SPCS","56232","FENGYUN 3G","PAYLOAD","U","23055A","2023-11-12 02:55:56","617248","15.52293063","0.0009242","49.9977","194.7527","205.522","154.5291","0","999","3264","0.00052537","0.00032304","0","4084969","0 FENGYUN 3G","1 56232U 23055A   23316.12218307  .00032304  00000-0  52537-3 0  9999","2 56232  49.9977 194.7527 0009242 205.5220 154.5291 15.52293063 32641","2023-055A","56232","6788.170","92.766","416.308","403.761","0"
"GENERATED VIA SPACETRACK.ORG API","18 SPCS","56232","FENGYUN 3G","PAYLOAD","U","23055A","2023-11-12 07:34:01","672032","15.52305157","0.0009243","49.9975","193.7585","206.4098","153.6399","0","999","3267","0.0005022","0.00030867","0","4085482","0 FENGYUN 3G","1 56232U 23055A   23316.31529713  .00030867  00000-0  50220-3 0  9995","2 56232  49.9975 193.7585 0009243 206.4098 153.6399 15.52305157 32676","2023-055A","56232","6788.135","92.765","416.274","403.725","0"
"GENERATED VIA SPACETRACK.ORG API","18 SPCS","56232","FENGYUN 3G","PAYLOAD","U","23055A","2023-11-12 13:44:48","207552","15.52326084","0.0009256","49.9974","192.4324","207.4573","152.5906","0","999","3271","0.00060123","0.00037104","0","4085556","0 FENGYUN 3G","1 56232U 23055A   23316.57278018  .00037104  00000-0  60123-3 0  9996","2 56232  49.9974 192.4324 0009256 207.4573 152.5906 15.52326084 32714","2023-055A","56232","6788.074","92.764","416.222","403.655","0"
"GENERATED VIA SPACETRACK.ORG API","18 SPCS","56232","FENGYUN 3G","PAYLOAD","U","23055A","2023-11-12 18:22:52","957344","15.52337808","0.0009261","49.9971","191.4383","208.3205","151.7259","0","999","3274","0.00058235","0.00035934","0","4086119","0 FENGYUN 3G","1 56232U 23055A   23316.76589071  .00035934  00000-0  58235-3 0  9991","2 56232  49.9971 191.4383 0009261 208.3205 151.7259 15.52337808 32744","2023-055A","56232","6788.039","92.763","416.191","403.618","0"
"GENERATED VIA SPACETRACK.ORG API","18 SPCS","56232","FENGYUN 3G","PAYLOAD","U","23055A","2023-11-12 21:28:16","38048","15.52344632","0.0009287","49.9971","190.7756","208.7842","151.2613","0","999","3276","0.0005533","0.00034119","0","4086163","0 FENGYUN 3G","1 56232U 23055A   23316.89463007  .00034119  00000-0  55330-3 0  9992","2 56232  49.9971 190.7756 0009287 208.7842 151.2613 15.52344632 32763","2023-055A","56232","6788.019","92.763","416.188","403.580","0"
"GENERATED VIA SPACETRACK.ORG API","18 SPCS","56232","FENGYUN 3G","PAYLOAD","U","23055A","2023-11-13 03:39:02","13696","15.52362833","0.0009301","49.9968","189.4494","209.916","150.1276","0","999","3280","0.00056162","0.00034664","0","4086710","0 FENGYUN 3G","1 56232U 23055A   23317.15210664  .00034664  00000-0  56162-3 0  9990","2 56232  49.9968 189.4494 0009301 209.9160 150.1276 15.52362833 32807","2023-055A","56232","6787.966","92.762","416.145","403.518","0"
"GENERATED VIA SPACETRACK.ORG API","18 SPCS","56232","FENGYUN 3G","PAYLOAD","U","23055A","2023-11-13 08:17:06","296064","15.52379577","0.0009316","49.9967","188.455","210.8131","149.229","0","999","3283","0.00062356","0.00038582","0","4087376","0 FENGYUN 3G","1 56232U 23055A   23317.34521176  .00038582  00000-0  62356-3 0  9999","2 56232  49.9967 188.4550 0009316 210.8131 149.2290 15.52379577 32834","2023-055A","56232","6787.918","92.761","416.106","403.459","0"
"GENERATED VIA SPACETRACK.ORG API","18 SPCS","56232","FENGYUN 3G","PAYLOAD","U","23055A","2023-11-13 08:17:06","296064","15.52379577","0.0009316","49.9967","188.455","210.8131","149.229","0","999","3283","0.00062356","0.00038582","0","4087425","0 FENGYUN 3G","1 56232U 23055A   23317.34521176  .00038582  00000-0  62356-3 0  9999","2 56232  49.9967 188.4550 0009316 210.8131 149.2290 15.52379577 32834","2023-055A","56232","6787.918","92.761","416.106","403.459","0"
"GENERATED VIA SPACETRACK.ORG API","18 SPCS","56232","FENGYUN 3G","PAYLOAD","U","23055A","2023-11-13 17:33:14","452128","15.52404652","0.0009347","49.9964","186.466","212.4745","147.5648","0","999","3289","0.00056708","0.00035062","0","4087791","0 FENGYUN 3G","1 56232U 23055A   23317.73141727  .00035062  00000-0  56708-3 0  9996","2 56232  49.9964 186.4660 0009347 212.4745 147.5648 15.52404652 32891","2023-055A","56232","6787.844","92.759","416.054","403.365","0"
"GENERATED VIA SPACETRACK.ORG API","18 SPCS","56232","FENGYUN 3G","PAYLOAD","U","23055A","2023-11-13 17:33:14","452128","15.52404652","0.0009347","49.9964","186.466","212.4745","147.5648","0","999","3289","0.00056708","0.00035062","0","4087875","0 FENGYUN 3G","1 56232U 23055A   23317.73141727  .00035062  00000-0  56708-3 0  9996","2 56232  49.9964 186.4660 0009347 212.4745 147.5648 15.52404652 32891","2023-055A","56232","6787.844","92.759","416.054","403.365","0"
"GENERATED VIA SPACETRACK.ORG API","18 SPCS","56232","FENGYUN 3G","PAYLOAD","U","23055A","2023-11-13 23:43:59","590560","15.52420521","0.0009355","49.9965","185.1398","213.5817","146.4558","0","999","3293","0.00054137","0.00033463","0","4088532","0 FENGYUN 3G","1 56232U 23055A   23317.98888415  .00033463  00000-0  54137-3 0  9992","2 56232  49.9965 185.1398 0009355 213.5817 146.4558 15.52420521 32933","2023-055A","56232","6787.798","92.758","416.013","403.313","0"
"GENERATED VIA SPACETRACK.ORG API","18 SPCS","56232","FENGYUN 3G","PAYLOAD","U","23055A","2023-11-14 04:22:03","241344","15.52433515","0.0009372","49.9964","184.145","214.486","145.55","0","999","3296","0.00050985","0.00031495","0","4089186","0 FENGYUN 3G","1 56232U 23055A   23318.18198196  .00031495  00000-0  50985-3 0  9995","2 56232  49.9964 184.1450 0009372 214.4860 145.5500 15.52433515 32964","2023-055A","56232","6787.760","92.758","415.987","403.264","0"
